{"type":"FeatureCollection","features":[{"type":"Feature","geometry":{"type":"Polygon","coordinates":[[[-67.1247,-9.9699],[-67.1003,-10.1038],[-67.0761,-10.088],[-67.076,-10.2024],[-67.0024,-10.2023],[-67.0023,-10.2297],[-66.9829,-10.1972],[-66.9514,-10.1867],[-66.9468,-10.1599],[-66.9107,-10.1465],[-66.8709,-10.0808],[-66.808,-10.0497],[-66.79,-10.022],[-66.7185,-9.9737],[-66.6751,-9.9671],[-66.6364,-9.9431],[-66.6269,-9.898],[-66.8103,-9.818],[-67.135,-9.6759],[-67.1878,-9.6924],[-67.1851,-9.71],[-67.0903,-9.9573],[-67.1247,-9.9699]]]},"properties":{"codarea":"1200013"}},{"type":"Feature","geometry":{"type":"Polygon","coordinates":[[[-67.8045,-10.1979],[-67.8285,-10.1204],[-67.8148,-10.0878],[-67.7744,-10.1081],[-67.6708,-10.1019],[-67.6375,-10.0601],[-67.6101,-10.0481],[-67.5807,-10.0692],[-67.5271,-10.021],[-67.4918,-10.0014],[-67.4965,-9.9765],[-67.4822,-9.9267],[-67.5169,-9.9063],[-67.5266,-9.8594],[-67.5815,-9.8369],[-67.6124,-9.8589],[-67.6532,-9.8632],[-67.6847,-9.8338],[-67.71,-9.8364],[-67.7182,-9.8056],[-67.7028,-9.7874],[-67.7435,-9.7397],[-67.7958,-9.762],[-67.8227,-9.7749],[-67.8337,-9.833],[-67.9495,-9.8536],[-67.9907,-9.8544],[-68.0451,-9.8917],[-68.0682,-9.8949],[-68.0989,-9.9296],[-68.1348,-9.9345],[-68.1531,-9.9611],[-68.2678,-9.8235],[-68.3002,-9.7947],[-68.3668,-9.7804],[-68.3901,-9.7888],[-68.4538,-9.8444],[-68.4225,-9.6917],[-68.4555,-9.6252],[-68.4272,-9.5994],[-68.418,-9.5455],[-68.4668,-9.546],[-68.5141,-9.5887],[-68.5842,-9.5392],[-68.6078,-9.5052],[-68.6334,-9.5159],[-68.6727,-9.5601],[-68.7001,-9.6793],[-68.6929,-9.7504],[-68.6665,-9.841],[-68.6944,-9.8868],[-68.8014,-9.9621],[-68.8851,-10.0627],[-69.0373,-10.1644],[-69.1208,-10.2689],[-69.1724,-10.2865],[-69.3109,-10.3639],[-69.342,-10.4029],[-69.3638,-10.4631],[-69.3418,-10.4853],[-69.2489,-10.4549],[-69.2194,-10.415],[-69.1316,-10.385],[-68.717,-10.3849],[-68.6816,-10.3515],[-68.6754,-10.3285],[-68.6369,-10.3042],[-68.6165,-10.3065],[-68.5638,-10.2728],[-68.5536,-10.2797],[-68.4927,-10.25],[-68.4895,-10.229],[-68.4543,-10.2154],[-68.4498,-10.2529],[-68.4172,-10.2659],[-68.4158,-10.3072],[-68.3755,-10.3116],[-68.3508,-10.3322],[-68.3545,-10.3579],[-68.3876,-10.3795],[-68.3248,-10.3937],[-68.3138,-10.4182],[-68.272,-10.3885],[-68.201,-10.3741],[-68.1231,-10.3747],[-68.092,-10.3637],[-68.0406,-10.3889],[-68.0383,-10.3516],[-67.9973,-10.3159],[-67.9599,-10.314],[-67.9461,-10.2875],[-67.8466,-10.2875],[-67.8045,-10.1979]]]},"properties":{"codarea":"1200401"}},{"type":"Feature","geometry":{"type":"Polygon","coordinates":[[[-67.4822,-9.9267],[-67.4965,-9.9765],[-67.4918,-10.0014],[-67.5271,-10.021],[-67.5807,-10.0692],[-67.6101,-10.0481],[-67.6375,-10.0601],[-67.6708,-10.1019],[-67.7744,-10.1081],[-67.8148,-10.0878],[-67.8285,-10.1204],[-67.8045,-10.1979],[-67.7542,-10.2712],[-67.7162,-10.2915],[-67.6849,-10.3566],[-67.6379,-10.3687],[-67.6233,-10.3194],[-67.5046,-10.2645],[-67.4603,-10.1781],[-67.4414,-10.1601],[-67.4285,-10.0961],[-67.3469,-10.0619],[-67.3002,-10.0625],[-67.2517,-10.0282],[-67.1247,-9.9699],[-67.0903,-9.9573],[-67.1851,-9.71],[-67.1878,-9.6924],[-67.135,-9.6759],[-67.3255,-9.5925],[-67.3394,-9.6247],[-67.3258,-9.6621],[-67.3332,-9.7215],[-67.3686,-9.7825],[-67.4382,-9.8357],[-67.4377,-9.8813],[-67.4509,-9.918],[-67.4822,-9.9267]]]},"properties":{"codarea":"1200450"}}]}